<?xml version="1.0" encoding="UTF-8"?>
<kml xmlns="http://www.opengis.net/kml/2.2"><Document>
<name>IMAV 2026 Haguenau zones digitised from rulebook V4 Fig. 19 (about 10 m accuracy; official corners come on the day)</name>
<Placemark><name>Geofence</name><Style><LineStyle><color>ffffffff</color><width>2</width></LineStyle><PolyStyle><color>40ffffff</color></PolyStyle></Style><Polygon><outerBoundaryIs><LinearRing><coordinates>7.8496176,48.8057046,0 7.8472371,48.8108428,0 7.8612146,48.8138079,0 7.8640396,48.8086394,0 7.8496176,48.8057046,0</coordinates></LinearRing></outerBoundaryIs></Polygon></Placemark>
<Placemark><name>Flight zone (Fig. 19 trace, advisory)</name><Style><LineStyle><color>ff000000</color><width>2</width></LineStyle><PolyStyle><color>40000000</color></PolyStyle></Style><Polygon><outerBoundaryIs><LinearRing><coordinates>7.8511238,48.8109785,0 7.8596099,48.8124225,0 7.8593593,48.8091079,0 7.8591406,48.8089248,0 7.8592572,48.8083321,0 7.8522971,48.8069594,0 7.8528298,48.8063514,0 7.8517789,48.8061593,0 7.8511238,48.8109785,0</coordinates></LinearRing></outerBoundaryIs></Polygon></Placemark>
<Placemark><name>Mapping Area 1</name><Style><LineStyle><color>ffff8800</color><width>2</width></LineStyle><PolyStyle><color>40ff8800</color></PolyStyle></Style><Polygon><outerBoundaryIs><LinearRing><coordinates>7.8510401,48.8110855,0 7.8545124,48.8112823,0 7.8550752,48.8071572,0 7.8516030,48.8069604,0 7.8510401,48.8110855,0</coordinates></LinearRing></outerBoundaryIs></Polygon></Placemark>
<Placemark><name>Mapping Area 2</name><Style><LineStyle><color>ff888888</color><width>2</width></LineStyle><PolyStyle><color>40888888</color></PolyStyle></Style><Polygon><outerBoundaryIs><LinearRing><coordinates>7.8595692,48.8123435,0 7.8591581,48.8084773,0 7.8551921,48.8076553,0 7.8548786,48.8085911,0 7.8545124,48.8112771,0 7.8595692,48.8123435,0</coordinates></LinearRing></outerBoundaryIs></Polygon></Placemark>
<Placemark><name>Fire zone</name><Style><LineStyle><color>ff0000ff</color><width>2</width></LineStyle><PolyStyle><color>400000ff</color></PolyStyle></Style><Polygon><outerBoundaryIs><LinearRing><coordinates>7.8525301,48.8105450,0 7.8535253,48.8106716,0 7.8539889,48.8090969,0 7.8529937,48.8089717,0 7.8525301,48.8105450,0</coordinates></LinearRing></outerBoundaryIs></Polygon></Placemark>
<Placemark><name>Drop zone</name><Style><LineStyle><color>ffff00ff</color><width>2</width></LineStyle><PolyStyle><color>40ff00ff</color></PolyStyle></Style><Polygon><outerBoundaryIs><LinearRing><coordinates>7.8515947,48.8068723,0 7.8518762,48.8069024,0 7.8520459,48.8062121,0 7.8517664,48.8061819,0 7.8515947,48.8068723,0</coordinates></LinearRing></outerBoundaryIs></Polygon></Placemark>
<Placemark><name>Takeoff Landing Multirotor</name><Style><LineStyle><color>ff8080ff</color><width>2</width></LineStyle><PolyStyle><color>408080ff</color></PolyStyle></Style><Polygon><outerBoundaryIs><LinearRing><coordinates>7.8521204,48.8065157,0 7.8524178,48.8065707,0 7.8524866,48.8064086,0 7.8521891,48.8063535,0 7.8521204,48.8065157,0</coordinates></LinearRing></outerBoundaryIs></Polygon></Placemark>
<Placemark><name>Takeoff Landing VTOL</name><Style><LineStyle><color>ff80c0ff</color><width>2</width></LineStyle><PolyStyle><color>4080c0ff</color></PolyStyle></Style><Polygon><outerBoundaryIs><LinearRing><coordinates>7.8514541,48.8089834,0 7.8521814,48.8090061,0 7.8522892,48.8076503,0 7.8515639,48.8076277,0 7.8514541,48.8089834,0</coordinates></LinearRing></outerBoundaryIs></Polygon></Placemark>
<Placemark><name>Landing</name><Point><coordinates>7.8523035,48.8064621,0</coordinates></Point></Placemark>
<Placemark><name>Dead man area</name><Point><coordinates>7.8518242,48.8104091,0</coordinates></Point></Placemark>
<Placemark><name>Table 6 sample vehicle 1</name><Point><coordinates>7.8520274,48.8095202,0</coordinates></Point></Placemark>
<Placemark><name>Table 6 sample vehicle 2</name><Point><coordinates>7.8518772,48.8084886,0</coordinates></Point></Placemark>
</Document></kml>